[
    {
        "Altitude(m)": 624790.7703641445,
        "Argument of Periapsis(deg)": 0.0,
        "Eccentricity": 0.0,
        "Inclination(deg)": 60.0,
        "Latitude(deg)": -59.14704071541433,
        "Longitude(deg)": 81.0346659760147,
        "Mean Anomaly(deg)": -81.8182,
        "RAAN(deg)": 255.0,
        "Satellite Name": "Test1 1139",
        "Satellite Number": 1139,
        "Semi-Major Axis(m)": 6980739.136638005,
        "Time(s)": 0
    },
    {
        "Altitude(m)": 624737.4251356036,
        "Argument of Periapsis(deg)": 0.00010418945913296404,
        "Eccentricity": 0.0,
        "Inclination(deg)": 60.0,
        "Latitude(deg)": -58.994495168762505,
        "Longitude(deg)": 82.15416521245542,
        "Mean Anomaly(deg)": -81.19809385453816,
        "RAAN(deg)": 254.99957995086027,
        "Satellite Name": "Test1 1139",
        "Satellite Number": 1139,
        "Semi-Major Axis(m)": 6980739.136638005,
        "Time(s)": 10
    }
]